COSMOS 1933             
1 18958U 88020A   26013.80453044  .00003236  00000+0  16020-3 0  9994
2 18958  82.5150 305.1927 0005701  47.5513 312.6201 15.17444460 41904
SL-3 R/B                
1 19046U 88032B   26014.14165746  .00003481  00000+0  16738-3 0  9991
2 19046  97.5109 357.6523 0028272  65.8938 294.5249 15.19133045 43828
SL-16 R/B               
1 19120U 88039B   26014.16019410  .00000102  00000+0  70834-4 0  9994
2 19120  71.0134 183.8484 0019782  60.6961 299.6138 14.19605005950645
COSMOS 1953             
1 19210U 88050A   26013.54889934  .00005477  00000+0  20291-3 0  9995
2 19210  82.5071 213.6526 0010964 324.5675  35.4835 15.27368252 29364
SL-8 R/B                
1 19257U 88053B   26013.79113134  .00000109  00000+0  43734-4 0  9993
2 19257  74.0453 213.6478 0019336  45.9372 325.4460 14.38879813968708
COSMOS 1975             
1 19573U 88093A   26014.15834389  .00004354  00000+0  16282-3 0  9994
2 19573  82.5199 172.3616 0011752   8.3506 351.7926 15.27002275 11089
SL-14 R/B               
1 19574U 88093B   26014.16689844  .00000361  00000+0  38784-4 0  9996
2 19574  82.5311  93.2372 0019848 215.0862 171.7694 14.85590900992947
SL-16 R/B               
1 19650U 88102B   26014.16271579  .00000260  00000+0  15541-3 0  9997
2 19650  70.9990 266.2244 0011999  94.8619 265.3875 14.16143275919176
INTERCOSMOS 24          
1 20261U 89080A   26013.83799422  .00000344  00000+0  92510-4 0  9993
2 20261  82.6077 140.0880 1188990  60.0990 311.2872 12.59486182659891
SL-14 R/B               
1 20262U 89080C   26014.06628841  .00000200  00000+0  59622-4 0  9994
2 20262  82.5912 208.2621 1229785 309.6976  40.1783 12.50438109653321
DELTA 1 R/B             
1 20323U 89089B   26014.05979416  .00000287  00000+0  80085-4 0  9999
2 20323  97.0736 230.1732 0067719 295.9499  63.4732 14.50605107887815
ARIANE 40 R/B           
1 20443U 90005H   26014.12333477  .00000178  00000+0  70171-4 0  9995
2 20443  98.3195  76.3791 0010240  15.8547 344.2961 14.39825515884956
