CCSDS_OMM_VERS = 2.0
CREATION_DATE  = 
ORIGINATOR     = 

OBJECT_NAME    = COSMOS 1933
OBJECT_ID      = 1988-020A
CENTER_NAME    = EARTH
REF_FRAME      = TEME
TIME_SYSTEM    = UTC
MEAN_ELEMENT_THEORY = SGP/SGP4

EPOCH          = 2026-01-13T19:18:31.430016
MEAN_MOTION    = 15.17444460
ECCENTRICITY   = .00057012
INCLINATION    = 82.5150
RA_OF_ASC_NODE = 305.1927
ARG_OF_PERICENTER = 47.5513
MEAN_ANOMALY   = 312.6201

EPHEMERIS_TYPE = 0
CLASSIFICATION_TYPE = U
NORAD_CAT_ID   = 18958
ELEMENT_SET_NO = 999
REV_AT_EPOCH   = 4190
BSTAR          = .16019844E-3
MEAN_MOTION_DOT = .3236E-4
MEAN_MOTION_DDOT = 0

CCSDS_OMM_VERS = 2.0
CREATION_DATE  = 
ORIGINATOR     = 

OBJECT_NAME    = SL-3 R/B
OBJECT_ID      = 1988-032B
CENTER_NAME    = EARTH
REF_FRAME      = TEME
TIME_SYSTEM    = UTC
MEAN_ELEMENT_THEORY = SGP/SGP4

EPOCH          = 2026-01-14T03:23:59.204544
MEAN_MOTION    = 15.19133045
ECCENTRICITY   = .00282729
INCLINATION    = 97.5109
RA_OF_ASC_NODE = 357.6523
ARG_OF_PERICENTER = 65.8938
MEAN_ANOMALY   = 294.5249

EPHEMERIS_TYPE = 0
CLASSIFICATION_TYPE = U
NORAD_CAT_ID   = 19046
ELEMENT_SET_NO = 999
REV_AT_EPOCH   = 4382
BSTAR          = .16737666E-3
MEAN_MOTION_DOT = .3481E-4
MEAN_MOTION_DDOT = 0

CCSDS_OMM_VERS = 2.0
CREATION_DATE  = 
ORIGINATOR     = 

OBJECT_NAME    = SL-16 R/B
OBJECT_ID      = 1988-039B
CENTER_NAME    = EARTH
REF_FRAME      = TEME
TIME_SYSTEM    = UTC
MEAN_ELEMENT_THEORY = SGP/SGP4

EPOCH          = 2026-01-14T03:50:40.770240
MEAN_MOTION    = 14.19605005
ECCENTRICITY   = .0019782
INCLINATION    = 71.0134
RA_OF_ASC_NODE = 183.8484
ARG_OF_PERICENTER = 60.6961
MEAN_ANOMALY   = 299.6138

EPHEMERIS_TYPE = 0
CLASSIFICATION_TYPE = U
NORAD_CAT_ID   = 19120
ELEMENT_SET_NO = 999
REV_AT_EPOCH   = 95064
BSTAR          = .70833572E-4
MEAN_MOTION_DOT = .102E-5
MEAN_MOTION_DDOT = 0

CCSDS_OMM_VERS = 2.0
CREATION_DATE  = 
ORIGINATOR     = 

OBJECT_NAME    = COSMOS 1953
OBJECT_ID      = 1988-050A
CENTER_NAME    = EARTH
REF_FRAME      = TEME
TIME_SYSTEM    = UTC
MEAN_ELEMENT_THEORY = SGP/SGP4

EPOCH          = 2026-01-13T13:10:24.902976
MEAN_MOTION    = 15.27368252
ECCENTRICITY   = .00109647
INCLINATION    = 82.5071
RA_OF_ASC_NODE = 213.6526
ARG_OF_PERICENTER = 324.5675
MEAN_ANOMALY   = 35.4835

EPHEMERIS_TYPE = 0
CLASSIFICATION_TYPE = U
NORAD_CAT_ID   = 19210
ELEMENT_SET_NO = 999
REV_AT_EPOCH   = 2936
BSTAR          = .20290974E-3
MEAN_MOTION_DOT = .5477E-4
MEAN_MOTION_DDOT = 0

CCSDS_OMM_VERS = 2.0
CREATION_DATE  = 
ORIGINATOR     = 

OBJECT_NAME    = SL-8 R/B
OBJECT_ID      = 1988-053B
CENTER_NAME    = EARTH
REF_FRAME      = TEME
TIME_SYSTEM    = UTC
MEAN_ELEMENT_THEORY = SGP/SGP4

EPOCH          = 2026-01-13T18:59:13.747776
MEAN_MOTION    = 14.38879813
ECCENTRICITY   = .00193366
INCLINATION    = 74.0453
RA_OF_ASC_NODE = 213.6478
ARG_OF_PERICENTER = 45.9372
MEAN_ANOMALY   = 325.4460

EPHEMERIS_TYPE = 0
CLASSIFICATION_TYPE = U
NORAD_CAT_ID   = 19257
ELEMENT_SET_NO = 999
REV_AT_EPOCH   = 96870
BSTAR          = .43733717E-4
MEAN_MOTION_DOT = .109E-5
MEAN_MOTION_DDOT = 0

CCSDS_OMM_VERS = 2.0
CREATION_DATE  = 
ORIGINATOR     = 

OBJECT_NAME    = COSMOS 1975
OBJECT_ID      = 1988-093A
CENTER_NAME    = EARTH
REF_FRAME      = TEME
TIME_SYSTEM    = UTC
MEAN_ELEMENT_THEORY = SGP/SGP4

EPOCH          = 2026-01-14T03:48:00.912096
MEAN_MOTION    = 15.27002275
ECCENTRICITY   = .00117526
INCLINATION    = 82.5199
RA_OF_ASC_NODE = 172.3616
ARG_OF_PERICENTER = 8.3506
MEAN_ANOMALY   = 351.7926

EPHEMERIS_TYPE = 0
CLASSIFICATION_TYPE = U
NORAD_CAT_ID   = 19573
ELEMENT_SET_NO = 999
REV_AT_EPOCH   = 1108
BSTAR          = .16281629E-3
MEAN_MOTION_DOT = .4354E-4
MEAN_MOTION_DDOT = 0

CCSDS_OMM_VERS = 2.0
CREATION_DATE  = 
ORIGINATOR     = 

OBJECT_NAME    = SL-14 R/B
OBJECT_ID      = 1988-093B
CENTER_NAME    = EARTH
REF_FRAME      = TEME
TIME_SYSTEM    = UTC
MEAN_ELEMENT_THEORY = SGP/SGP4

EPOCH          = 2026-01-14T04:00:20.025216
MEAN_MOTION    = 14.85590900
ECCENTRICITY   = .00198483
INCLINATION    = 82.5311
RA_OF_ASC_NODE = 93.2372
ARG_OF_PERICENTER = 215.0862
MEAN_ANOMALY   = 171.7694

EPHEMERIS_TYPE = 0
CLASSIFICATION_TYPE = U
NORAD_CAT_ID   = 19574
ELEMENT_SET_NO = 999
REV_AT_EPOCH   = 99294
BSTAR          = .38784001E-4
MEAN_MOTION_DOT = .361E-5
MEAN_MOTION_DDOT = 0

CCSDS_OMM_VERS = 2.0
CREATION_DATE  = 
ORIGINATOR     = 

OBJECT_NAME    = SL-16 R/B
OBJECT_ID      = 1988-102B
CENTER_NAME    = EARTH
REF_FRAME      = TEME
TIME_SYSTEM    = UTC
MEAN_ELEMENT_THEORY = SGP/SGP4

EPOCH          = 2026-01-14T03:54:18.644256
MEAN_MOTION    = 14.16143275
ECCENTRICITY   = .00119993
INCLINATION    = 70.9990
RA_OF_ASC_NODE = 266.2244
ARG_OF_PERICENTER = 94.8619
MEAN_ANOMALY   = 265.3875

EPHEMERIS_TYPE = 0
CLASSIFICATION_TYPE = U
NORAD_CAT_ID   = 19650
ELEMENT_SET_NO = 999
REV_AT_EPOCH   = 91917
BSTAR          = .15540544E-3
MEAN_MOTION_DOT = .26E-5
MEAN_MOTION_DDOT = 0

CCSDS_OMM_VERS = 2.0
CREATION_DATE  = 
ORIGINATOR     = 

OBJECT_NAME    = INTERCOSMOS 24
OBJECT_ID      = 1989-080A
CENTER_NAME    = EARTH
REF_FRAME      = TEME
TIME_SYSTEM    = UTC
MEAN_ELEMENT_THEORY = SGP/SGP4

EPOCH          = 2026-01-13T20:06:42.700608
MEAN_MOTION    = 12.59486182
ECCENTRICITY   = .11889904
INCLINATION    = 82.6077
RA_OF_ASC_NODE = 140.0880
ARG_OF_PERICENTER = 60.0990
MEAN_ANOMALY   = 311.2872

EPHEMERIS_TYPE = 0
CLASSIFICATION_TYPE = U
NORAD_CAT_ID   = 20261
ELEMENT_SET_NO = 999
REV_AT_EPOCH   = 65989
BSTAR          = .92509939E-4
MEAN_MOTION_DOT = .344E-5
MEAN_MOTION_DDOT = 0

CCSDS_OMM_VERS = 2.0
CREATION_DATE  = 
ORIGINATOR     = 

OBJECT_NAME    = SL-14 R/B
OBJECT_ID      = 1989-080C
CENTER_NAME    = EARTH
REF_FRAME      = TEME
TIME_SYSTEM    = UTC
MEAN_ELEMENT_THEORY = SGP/SGP4

EPOCH          = 2026-01-14T01:35:27.318624
MEAN_MOTION    = 12.50438109
ECCENTRICITY   = .12297856
INCLINATION    = 82.5912
RA_OF_ASC_NODE = 208.2621
ARG_OF_PERICENTER = 309.6976
MEAN_ANOMALY   = 40.1783

EPHEMERIS_TYPE = 0
CLASSIFICATION_TYPE = U
NORAD_CAT_ID   = 20262
ELEMENT_SET_NO = 999
REV_AT_EPOCH   = 65332
BSTAR          = .59622401E-4
MEAN_MOTION_DOT = .2E-5
MEAN_MOTION_DDOT = 0

CCSDS_OMM_VERS = 2.0
CREATION_DATE  = 
ORIGINATOR     = 

OBJECT_NAME    = DELTA 1 R/B
OBJECT_ID      = 1989-089B
CENTER_NAME    = EARTH
REF_FRAME      = TEME
TIME_SYSTEM    = UTC
MEAN_ELEMENT_THEORY = SGP/SGP4

EPOCH          = 2026-01-14T01:26:06.215424
MEAN_MOTION    = 14.50605107
ECCENTRICITY   = .00677197
INCLINATION    = 97.0736
RA_OF_ASC_NODE = 230.1732
ARG_OF_PERICENTER = 295.9499
MEAN_ANOMALY   = 63.4732

EPHEMERIS_TYPE = 0
CLASSIFICATION_TYPE = U
NORAD_CAT_ID   = 20323
ELEMENT_SET_NO = 999
REV_AT_EPOCH   = 88781
BSTAR          = .80084538E-4
MEAN_MOTION_DOT = .287E-5
MEAN_MOTION_DDOT = 0

CCSDS_OMM_VERS = 2.0
CREATION_DATE  = 
ORIGINATOR     = 

OBJECT_NAME    = ARIANE 40 R/B
OBJECT_ID      = 1990-005H
CENTER_NAME    = EARTH
REF_FRAME      = TEME
TIME_SYSTEM    = UTC
MEAN_ELEMENT_THEORY = SGP/SGP4

EPOCH          = 2026-01-14T02:57:36.124128
MEAN_MOTION    = 14.39825515
ECCENTRICITY   = .00102401
INCLINATION    = 98.3195
RA_OF_ASC_NODE = 76.3791
ARG_OF_PERICENTER = 15.8547
MEAN_ANOMALY   = 344.2961

EPHEMERIS_TYPE = 0
CLASSIFICATION_TYPE = U
NORAD_CAT_ID   = 20443
ELEMENT_SET_NO = 999
REV_AT_EPOCH   = 88495
BSTAR          = .70170725E-4
MEAN_MOTION_DOT = .178E-5
MEAN_MOTION_DDOT = 0

